CCSDS_OMM_VERS = 2.0
CREATION_DATE  = 
ORIGINATOR     = 

OBJECT_NAME    = SHENZHOU-21 (SZ-21)
OBJECT_ID      = 2025-246A
CENTER_NAME    = EARTH
REF_FRAME      = TEME
TIME_SYSTEM    = UTC
MEAN_ELEMENT_THEORY = SGP/SGP4

EPOCH          = 2025-11-06T20:21:20.142720
MEAN_MOTION    = 15.60542316
ECCENTRICITY   = .00057535
INCLINATION    = 41.4667
RA_OF_ASC_NODE = 234.6537
ARG_OF_PERICENTER = 334.9665
MEAN_ANOMALY   = 25.0894

EPHEMERIS_TYPE = 0
CLASSIFICATION_TYPE = U
NORAD_CAT_ID   = 66263
ELEMENT_SET_NO = 999
REV_AT_EPOCH   = 25813
BSTAR          = .42324143E-3
MEAN_MOTION_DOT = .35789E-3
MEAN_MOTION_DDOT = 0

CCSDS_OMM_VERS = 2.0
CREATION_DATE  = 
ORIGINATOR     = 

OBJECT_NAME    = CZ-2F R/B
OBJECT_ID      = 2025-246B
CENTER_NAME    = EARTH
REF_FRAME      = TEME
TIME_SYSTEM    = UTC
MEAN_ELEMENT_THEORY = SGP/SGP4

EPOCH          = 2025-11-06T22:06:01.224000
MEAN_MOTION    = 16.13271454
ECCENTRICITY   = .00808479
INCLINATION    = 41.4615
RA_OF_ASC_NODE = 231.5530
ARG_OF_PERICENTER = 174.2047
MEAN_ANOMALY   = 185.9763

EPHEMERIS_TYPE = 0
CLASSIFICATION_TYPE = U
NORAD_CAT_ID   = 66264
ELEMENT_SET_NO = 999
REV_AT_EPOCH   = 101
BSTAR          = .61746546E-3
MEAN_MOTION_DOT = .1368782E-1
MEAN_MOTION_DDOT = .761928E-5

